{
  "type": "FeatureCollection",
  "generator": "overpass-ide",
  "copyright": "The data included in this document is from www.openstreetmap.org. The data is made available under ODbL.",
  "timestamp": "2019-05-23T08:44:02Z",
  "features": [
    {
      "type": "Feature",
      "properties": {
        "@id": "way/4610129",
        "addr:city": "Berlin",
        "addr:housenumber": "1",
        "addr:postcode": "13347",
        "addr:street": "Heinz-Galinski-Straße",
        "amenity": "hospital",
        "name": "Jüdisches Krankenhaus Berlin",
        "name:en": "Berlin Jewish Hospital",
        "phone": "+49 30 49940",
        "toilets:wheelchair": "yes",
        "website": "https://www.juedisches-krankenhaus.de/",
        "wheelchair": "yes",
        "wheelchair:description": "Hauptgebäude liegt auf einem Hügel.",
        "wikidata": "Q319026",
        "@geometry": "center"
      },
      "geometry": {
        "type": "Point",
        "coordinates": [13.3703633, 52.5554121]
      },
      "id": "way/4610129"
    },
    {
      "type": "Feature",
      "properties": {
        "@id": "way/4637750",
        "amenity": "hospital",
        "name": "DRK Kliniken Berlin | Mitte",
        "wheelchair": "yes",
        "@geometry": "center"
      },
      "geometry": {
        "type": "Point",
        "coordinates": [13.3752301, 52.557367]
      },
      "id": "way/4637750"
    },
    {
      "type": "Feature",
      "properties": {
        "@id": "way/4750929",
        "amenity": "hospital",
        "emergency": "yes",
        "name": "Charité Campus Virchow Klinikum",
        "phone": "+49 30 45050",
        "website": "https://www.charite.de/",
        "wheelchair": "yes",
        "wikidata": "Q2172279",
        "wikipedia": "de:Rudolf-Virchow-Krankenhaus",
        "@geometry": "center"
      },
      "geometry": {
        "type": "Point",
        "coordinates": [13.3425566, 52.5421508]
      },
      "id": "way/4750929"
    },
    {
      "type": "Feature",
      "properties": {
        "@id": "way/4765926",
        "addr:city": "Berlin",
        "addr:country": "DE",
        "addr:housenumber": "2",
        "addr:postcode": "13509",
        "addr:street": "Am Nordgraben",
        "addr:suburb": "Borsigwalde",
        "amenity": "hospital",
        "emergency": "yes",
        "name": "Vivantes Humboldt-Klinikum",
        "phone": "+49 30 130120",
        "website": "https://www.vivantes.de/huk",
        "wheelchair": "limited",
        "wheelchair:description": "voll barrierefrei",
        "wikidata": "Q2528982",
        "wikipedia:de": "Vivantes Humboldt-Klinikum",
        "@geometry": "center"
      },
      "geometry": {
        "type": "Point",
        "coordinates": [13.3076971, 52.5897621]
      },
      "id": "way/4765926"
    },
    {
      "type": "Feature",
      "properties": {
        "@id": "way/24054786",
        "addr:city": "Berlin",
        "addr:country": "DE",
        "addr:housenumber": "5-11",
        "addr:postcode": "10115",
        "addr:street": "Große Hamburger Straße",
        "addr:suburb": "Mitte",
        "amenity": "hospital",
        "contact:phone": "+4930 23110",
        "contact:website": "http://www.alexianer-berlin-hedwigkliniken.de/st_hedwig_krankenhaus",
        "name": "St. Hedwig-Krankenhaus",
        "name:en": "St. Hedwig Hospital",
        "name:nl": "St. Hedwigziekenhuis",
        "toilets:wheelchair": "yes",
        "wheelchair": "yes",
        "wheelchair:description": "Im Erdgeschoss gibt es über den Haupteingang im linken Flügel ein barrierefreies WC",
        "wikidata": "Q2318710",
        "wikipedia": "de:St. Hedwig-Krankenhaus",
        "@geometry": "center"
      },
      "geometry": {
        "type": "Point",
        "coordinates": [13.3967186, 52.5260055]
      },
      "id": "way/24054786"
    },
    {
      "type": "Feature",
      "properties": {
        "@id": "way/24423829",
        "addr:city": "Grünheide (Mark)",
        "addr:country": "DE",
        "addr:housenumber": "1",
        "addr:postcode": "15537",
        "addr:street": "An der REHA-Klinik",
        "amenity": "hospital",
        "contact:email": "kontakt.gruenheide@median-kliniken.de",
        "contact:fax": "+493362739222",
        "contact:phone": "+4933627390",
        "contact:website": "http://www.median-kliniken.de/median-kliniken/rehabilitationskliniken/median-klinik-gruenheide",
        "layer": "1",
        "name": "MEDIAN Klinik Grünheide",
        "toilets:wheelchair": "yes",
        "wheelchair": "yes",
        "wheelchair:description": "Ist ja auch eine neurologische Rehaklinik mit ca. 200 Rollis",
        "@geometry": "center"
      },
      "geometry": {
        "type": "Point",
        "coordinates": [13.8133687, 52.424364]
      },
      "id": "way/24423829"
    },
    {
      "type": "Feature",
      "properties": {
        "@id": "way/24861966",
        "amenity": "hospital",
        "name": "Klinik am See",
        "website": "https://www.klinikamsee.com/",
        "@geometry": "center"
      },
      "geometry": {
        "type": "Point",
        "coordinates": [13.7712362, 52.4528016]
      },
      "id": "way/24861966"
    },
    {
      "type": "Feature",
      "properties": {
        "@id": "way/24862014",
        "amenity": "hospital",
        "name": "Immanuel Klinik Rüdersdorf",
        "website": "http://ruedersdorf.immanuel.de",
        "@geometry": "center"
      },
      "geometry": {
        "type": "Point",
        "coordinates": [13.7729786, 52.4547213]
      },
      "id": "way/24862014"
    },
    {
      "type": "Feature",
      "properties": {
        "@id": "way/24931203",
        "addr:city": "Berlin",
        "addr:country": "DE",
        "addr:housenumber": "13",
        "addr:postcode": "10115",
        "addr:street": "Scharnhorststraße",
        "addr:suburb": "Mitte",
        "amenity": "hospital",
        "contact:phone": "+493028410",
        "emergency": "yes",
        "landuse": "military",
        "name": "Bundeswehrkrankenhaus Berlin",
        "website": "http://www.bundeswehrkrankenhaus-berlin.de",
        "wikidata": "Q1009265",
        "@geometry": "center"
      },
      "geometry": {
        "type": "Point",
        "coordinates": [13.3713474, 52.5356575]
      },
      "id": "way/24931203"
    },
    {
      "type": "Feature",
      "properties": {
        "@id": "way/24950668",
        "amenity": "hospital",
        "name": "Evangelisches Waldkrankenhaus Spandau",
        "wheelchair": "yes",
        "wikidata": "Q15110572",
        "wikipedia:de": "Evangelisches Waldkrankenhaus Spandau",
        "@geometry": "center"
      },
      "geometry": {
        "type": "Point",
        "coordinates": [13.1560713, 52.5625388]
      },
      "id": "way/24950668"
    },
    {
      "type": "Feature",
      "properties": {
        "@id": "way/25610208",
        "addr:city": "Beelitz",
        "addr:country": "DE",
        "addr:housename": "C5",
        "addr:postcode": "14547",
        "addr:street": "Paracelsusring",
        "amenity": "hospital",
        "building": "yes",
        "healthcare": "rehabilitation",
        "historic": "yes",
        "name": "Neurologische Rehabilitationsklinik Beelitz-Heilstätten",
        "old_name": "Männer-Lungenheilstätte (B5)",
        "ref": "B5",
        "@geometry": "center"
      },
      "geometry": {
        "type": "Point",
        "coordinates": [12.9247226, 52.2672129]
      },
      "id": "way/25610208"
    },
    {
      "type": "Feature",
      "properties": {
        "@id": "way/25689758",
        "amenity": "hospital",
        "name": "Oberhavel Kliniken",
        "@geometry": "center"
      },
      "geometry": {
        "type": "Point",
        "coordinates": [13.2419235, 52.7429054]
      },
      "id": "way/25689758"
    },
    {
      "type": "Feature",
      "properties": {
        "@id": "way/26775078",
        "addr:city": "Berlin",
        "addr:country": "DE",
        "addr:housenumber": "221",
        "addr:postcode": "14089",
        "addr:street": "Kladower Damm",
        "amenity": "hospital",
        "emergency": "yes",
        "name": "Gemeinschaftskrankenhaus Havelhöhe",
        "@geometry": "center"
      },
      "geometry": {
        "type": "Point",
        "coordinates": [13.16295, 52.4621451]
      },
      "id": "way/26775078"
    },
    {
      "type": "Feature",
      "properties": {
        "@id": "way/27193183",
        "addr:city": "Hennigsdorf",
        "addr:housenumber": "91",
        "addr:postcode": "16761",
        "addr:street": "Marwitzer Straße",
        "amenity": "hospital",
        "building": "hospital",
        "name": "Oberhavelklinik Hennigsdorf",
        "website": "https://www.oberhavel-kliniken.de/",
        "wheelchair": "yes",
        "@geometry": "center"
      },
      "geometry": {
        "type": "Point",
        "coordinates": [13.1906828, 52.6556985]
      },
      "id": "way/27193183"
    },
    {
      "type": "Feature",
      "properties": {
        "@id": "way/28410179",
        "alt_name": "Eiermannbau",
        "amenity": "hospital",
        "name": "Neurologisches Fachkrankenhaus für Bewegungsstörungen / Parkinson",
        "old_name": "Krankenhaus Beelitz-Heilstätten",
        "wheelchair": "limited",
        "@geometry": "center"
      },
      "geometry": {
        "type": "Point",
        "coordinates": [12.9298271, 52.255294]
      },
      "id": "way/28410179"
    },
    {
      "type": "Feature",
      "properties": {
        "@id": "way/30631242",
        "addr:city": "Berlin",
        "addr:country": "DE",
        "addr:housenumber": "11",
        "addr:postcode": "14165",
        "addr:street": "Walterhöferstraße",
        "addr:suburb": "Zehlendorf",
        "amenity": "hospital",
        "name": "Helios Klinikum Emil von Behring",
        "operator": "Helios Kliniken",
        "phone": "+49 30 81020",
        "source": "Yahoo;extrapolation",
        "toilets:wheelchair": "yes",
        "website": "http://www.helios-kliniken.de",
        "wheelchair": "yes",
        "wikidata": "Q50038610",
        "@geometry": "center"
      },
      "geometry": {
        "type": "Point",
        "coordinates": [13.2541807, 52.4227073]
      },
      "id": "way/30631242"
    },
    {
      "type": "Feature",
      "properties": {
        "@id": "way/31284439",
        "addr:city": "Berlin",
        "addr:country": "DE",
        "addr:housenumber": "40",
        "addr:postcode": "14163",
        "addr:street": "Argentinische Allee",
        "addr:suburb": "Zehlendorf",
        "amenity": "hospital",
        "email": "info@waldfriede.de",
        "name": "Krankenhaus Waldfriede",
        "phone": "+49 30 818100",
        "website": "https://www.krankenhaus-waldfriede.de/",
        "wheelchair": "yes",
        "wikidata": "Q30193282",
        "wikipedia": "de:Krankenhaus Waldfriede",
        "@geometry": "center"
      },
      "geometry": {
        "type": "Point",
        "coordinates": [13.2398672, 52.4445018]
      },
      "id": "way/31284439"
    },
    {
      "type": "Feature",
      "properties": {
        "@id": "way/32204608",
        "amenity": "hospital",
        "barrier": "fence",
        "emergency": "yes",
        "name": "DRK Kliniken Berlin - Köpenick",
        "name:de": "DRK Kliniken Berlin - Köpenick",
        "name:en": "German Red Cross Hospital Berlin Köpenick",
        "wheelchair": "yes",
        "wikidata": "Q19963300",
        "@geometry": "center"
      },
      "geometry": {
        "type": "Point",
        "coordinates": [13.595722, 52.4401091]
      },
      "id": "way/32204608"
    },
    {
      "type": "Feature",
      "properties": {
        "@id": "way/32424425",
        "addr:city": "Berlin",
        "addr:housenumber": "125",
        "addr:postcode": "12157",
        "addr:street": "Rubensstraße",
        "addr:suburb": "Schöneberg",
        "amenity": "hospital",
        "barrier": "wall",
        "emergency": "yes",
        "loc_name": "Auguste-Victoria-Krankenhaus",
        "name": "Auguste-Viktoria-Klinikum",
        "operator": "Vivantes",
        "phone": "+49 30 130200",
        "short_name": "AVK",
        "website": "https://www.vivantes.de/avk",
        "wheelchair": "limited",
        "wikidata": "Q766049",
        "wikipedia": "de:Auguste-Viktoria-Klinikum Berlin",
        "@geometry": "center"
      },
      "geometry": {
        "type": "Point",
        "coordinates": [13.3465511, 52.4620791]
      },
      "id": "way/32424425"
    },
    {
      "type": "Feature",
      "properties": {
        "@id": "way/38026826",
        "amenity": "hospital",
        "name": "Fontane-Klinik Motzen",
        "website": "https://www.fontane-klinik.de/",
        "@geometry": "center"
      },
      "geometry": {
        "type": "Point",
        "coordinates": [13.5989223, 52.1814646]
      },
      "id": "way/38026826"
    },
    {
      "type": "Feature",
      "properties": {
        "@id": "way/39771902",
        "addr:housenumber": "40-44",
        "addr:postcode": "14974",
        "addr:street": "Albert-Schweitzer-Straße",
        "amenity": "hospital",
        "emergency": "yes",
        "name": "Evangelisches Krankenhaus Ludwigsfelde-Teltow",
        "website": "http://www.ekh-ludwigsfelde.de",
        "@geometry": "center"
      },
      "geometry": {
        "type": "Point",
        "coordinates": [13.2581762, 52.3108082]
      },
      "id": "way/39771902"
    },
    {
      "type": "Feature",
      "properties": {
        "@id": "way/41447057",
        "addr:housenumber": "15",
        "addr:street": "Fröbelstraße",
        "amenity": "hospital",
        "name": "Vivantes Klinikum im Friedrichshain, Standort Prenzlauer Berg",
        "website": "https://www.vivantes.de/fuer-sie-vor-ort/klinikum-im-friedrichshain-prenzlauer-berg/",
        "wheelchair": "yes",
        "@geometry": "center"
      },
      "geometry": {
        "type": "Point",
        "coordinates": [13.4297195, 52.5406155]
      },
      "id": "way/41447057"
    },
    {
      "type": "Feature",
      "properties": {
        "@id": "way/46839073",
        "addr:city": "Berlin",
        "addr:country": "DE",
        "addr:housenumber": "32",
        "addr:postcode": "10365",
        "addr:street": "Fanningerstraße",
        "alt_name": "Oskar-Ziethen-Krankenhaus",
        "amenity": "hospital",
        "name": "Sana Klinikum Lichtenberg",
        "operator": "Sana Kliniken Berlin-Brandenburg GmbH",
        "wheelchair": "yes",
        "wikidata": "Q2033508",
        "wikipedia:de": "Oskar-Ziethen-Krankenhaus",
        "@geometry": "center"
      },
      "geometry": {
        "type": "Point",
        "coordinates": [13.4954295, 52.5133023]
      },
      "id": "way/46839073"
    },
    {
      "type": "Feature",
      "properties": {
        "@id": "way/48992251",
        "addr:city": "Berlin",
        "addr:country": "DE",
        "addr:housenumber": "23",
        "addr:postcode": "12099",
        "addr:street": "Wenckebachstraße",
        "addr:suburb": "Tempelhof",
        "amenity": "hospital",
        "heritage": "4",
        "heritage:operator": "lda",
        "lda:criteria": "Gesamtanlage",
        "name": "Vivantes Wenckebach-Klinikum",
        "old_name": "2. Garnison-Lazarett",
        "ref:lda": "09055132",
        "source": "Geoportal Berlin / Hauskoordinaten",
        "wheelchair": "yes",
        "@geometry": "center"
      },
      "geometry": {
        "type": "Point",
        "coordinates": [13.3902674, 52.4590154]
      },
      "id": "way/48992251"
    },
    {
      "type": "Feature",
      "properties": {
        "@id": "way/49184262",
        "addr:city": "Berlin",
        "addr:country": "DE",
        "addr:housenumber": "30",
        "addr:postcode": "13467",
        "addr:street": "Kurhausstraße",
        "amenity": "hospital",
        "email": "info@dominikus-berlin.de",
        "emergency": "yes",
        "fax": "+4930 4042 408",
        "name": "Dominikus-Krankenhaus",
        "phone": "+4930 4092 0",
        "website": "http://www.dominikus-berlin.de/",
        "@geometry": "center"
      },
      "geometry": {
        "type": "Point",
        "coordinates": [13.2939448, 52.6246859]
      },
      "id": "way/49184262"
    },
    {
      "type": "Feature",
      "properties": {
        "@id": "way/49876720",
        "addr:city": "Berlin",
        "addr:country": "DE",
        "addr:housenumber": "79",
        "addr:postcode": "10365",
        "addr:street": "Herzbergstraße",
        "addr:suburb": "Lichtenberg",
        "amenity": "hospital",
        "contact:website": "http://www.keh-berlin.de",
        "emergency": "yes",
        "name": "Evangelisches Krankenhaus Königin Elisabeth Herzberge",
        "wheelchair": "yes",
        "wikidata": "Q1381349",
        "wikipedia:de": "Evangelisches Krankenhaus Königin Elisabeth Herzberge",
        "@geometry": "center"
      },
      "geometry": {
        "type": "Point",
        "coordinates": [13.5095722, 52.5280803]
      },
      "id": "way/49876720"
    },
    {
      "type": "Feature",
      "properties": {
        "@id": "way/53038853",
        "addr:city": "Berlin",
        "addr:country": "DE",
        "addr:housenumber": "130",
        "addr:postcode": "14050",
        "addr:street": "Spandauer Damm",
        "addr:suburb": "Westend",
        "amenity": "hospital",
        "emergency": "yes",
        "name": "DRK Kliniken Westend",
        "operator": "Deutsches Rotes Kreuz Schwesternschaft Berlin Gemeinnützige Krankenhaus GmbH",
        "phone": "+49303035-0",
        "ref": "DRK Kliniken Westend",
        "website": "http://www.drk-kliniken-berlin.de/westend/lageplan-der-drk-kliniken-berlin-westend/",
        "wheelchair": "yes",
        "@geometry": "center"
      },
      "geometry": {
        "type": "Point",
        "coordinates": [13.277294, 52.5202588]
      },
      "id": "way/53038853"
    },
    {
      "type": "Feature",
      "properties": {
        "@id": "way/53224317",
        "amenity": "hospital",
        "emergency": "yes",
        "name": "Charité-Campus Benjamin Franklin",
        "toilets:wheelchair": "yes",
        "website": "https://www.charite.de/charite/standorte/campus_benjamin_franklin_cbf/",
        "wheelchair": "yes",
        "@geometry": "center"
      },
      "geometry": {
        "type": "Point",
        "coordinates": [13.3208462, 52.4420428]
      },
      "id": "way/53224317"
    },
    {
      "type": "Feature",
      "properties": {
        "@id": "way/69869582",
        "addr:city": "Berlin",
        "addr:country": "DE",
        "addr:housenumber": "1",
        "addr:postcode": "12526",
        "addr:street": "Höhensteig",
        "addr:suburb": "Bohnsdorf",
        "amenity": "hospital",
        "emergency": "yes",
        "name": "Krankenhaus Hedwigshöhe",
        "wheelchair": "yes",
        "wikidata": "Q1764107",
        "@geometry": "center"
      },
      "geometry": {
        "type": "Point",
        "coordinates": [13.5700517, 52.4060883]
      },
      "id": "way/69869582"
    },
    {
      "type": "Feature",
      "properties": {
        "@id": "way/85826741",
        "amenity": "hospital",
        "name": "Asklepios Fachklinikum Teupitz",
        "wheelchair": "yes",
        "@geometry": "center"
      },
      "geometry": {
        "type": "Point",
        "coordinates": [13.6178652, 52.1312037]
      },
      "id": "way/85826741"
    },
    {
      "type": "Feature",
      "properties": {
        "@id": "way/93478285",
        "amenity": "hospital",
        "building": "yes",
        "contact:fax": "+49 30 82630-51",
        "contact:phone": "+49 30 82630-52",
        "name": "Klinik am Roseneck",
        "operator": "Service KG Gesellschaft für Klinik-, Hotel- und Gaststätten-Dienste mbH & Co.",
        "@geometry": "center"
      },
      "geometry": {
        "type": "Point",
        "coordinates": [13.2814545, 52.4792516]
      },
      "id": "way/93478285"
    },
    {
      "type": "Feature",
      "properties": {
        "@id": "way/94691063",
        "addr:city": "Berlin",
        "addr:country": "DE",
        "addr:housenumber": "69",
        "addr:postcode": "14129",
        "addr:street": "Potsdamer Chaussee",
        "addr:suburb": "Nikolassee",
        "amenity": "hospital",
        "name": "Kliniken im Theodor-Wenzel-Werk",
        "phone": "+49 30 81090",
        "website": "https://tww-berlin.de/kliniken",
        "@geometry": "center"
      },
      "geometry": {
        "type": "Point",
        "coordinates": [13.2052618, 52.4226369]
      },
      "id": "way/94691063"
    },
    {
      "type": "Feature",
      "properties": {
        "@id": "way/99146927",
        "amenity": "hospital",
        "name": "Maria Heimsuchung Caritas Klinikum Pankow",
        "wheelchair": "yes",
        "@geometry": "center"
      },
      "geometry": {
        "type": "Point",
        "coordinates": [13.4141205, 52.5709866]
      },
      "id": "way/99146927"
    },
    {
      "type": "Feature",
      "properties": {
        "@id": "way/110768946",
        "amenity": "hospital",
        "building": "yes",
        "name": "Ernst von Bergmann Klinikum - Psychiatrie, Psychotherapie",
        "source": "bing",
        "wheelchair": "yes",
        "@geometry": "center"
      },
      "geometry": {
        "type": "Point",
        "coordinates": [13.1365516, 52.3846727]
      },
      "id": "way/110768946"
    },
    {
      "type": "Feature",
      "properties": {
        "@id": "way/114201147",
        "addr:city": "Berlin",
        "addr:country": "DE",
        "addr:housenumber": "2",
        "addr:postcode": "14059",
        "addr:street": "Heubnerweg",
        "addr:suburb": "Charlottenburg",
        "amenity": "hospital",
        "contact:email": "info@schlosspark-klinik.de",
        "contact:fax": "+49 30 32641685",
        "contact:phone": "+49 30 32640",
        "contact:website": "http://www.schlosspark-klinik.de",
        "name": "Schlosspark-Klinik",
        "note": "Geprüft am 27. Dez 2015",
        "wheelchair": "yes",
        "wikidata": "Q19308767",
        "@geometry": "center"
      },
      "geometry": {
        "type": "Point",
        "coordinates": [13.2897238, 52.5222616]
      },
      "id": "way/114201147"
    },
    {
      "type": "Feature",
      "properties": {
        "@id": "way/115918729",
        "addr:city": "Potsdam",
        "addr:country": "DE",
        "addr:housenumber": "24",
        "addr:postcode": "14482",
        "addr:street": "Rudolf-Breitscheid-Straße",
        "amenity": "hospital",
        "building": "hospital",
        "description": "Orthopädische Fachklinik",
        "name": "Oberlinklinik",
        "roof:shape": "flat",
        "wheelchair": "yes",
        "@geometry": "center"
      },
      "geometry": {
        "type": "Point",
        "coordinates": [13.0889978, 52.3941583]
      },
      "id": "way/115918729"
    },
    {
      "type": "Feature",
      "properties": {
        "@id": "way/119398219",
        "addr:city": "Berlin",
        "addr:country": "DE",
        "addr:housenumber": "12",
        "addr:postcode": "10713",
        "addr:street": "Paretzer Straße",
        "addr:suburb": "Wilmersdorf",
        "amenity": "hospital",
        "contact:website": "http://www.sankt-gertrauden.de",
        "name": "Sankt Gertrauden-Krankenhaus",
        "operator": "Gesellschaft der Katharinenschwestern",
        "phone": "+49 30 82720",
        "toilets:wheelchair": "yes",
        "wheelchair": "yes",
        "wikidata": "Q20181173",
        "@geometry": "center"
      },
      "geometry": {
        "type": "Point",
        "coordinates": [13.3172076, 52.4803471]
      },
      "id": "way/119398219"
    },
    {
      "type": "Feature",
      "properties": {
        "@id": "way/125542249",
        "amenity": "hospital",
        "name": "Vivantes - Haus Hohengatow",
        "operator": "Vivantes",
        "@geometry": "center"
      },
      "geometry": {
        "type": "Point",
        "coordinates": [13.1779301, 52.4694606]
      },
      "id": "way/125542249"
    },
    {
      "type": "Feature",
      "properties": {
        "@id": "way/132056990",
        "addr:city": "Berlin",
        "addr:country": "DE",
        "addr:housenumber": "27-31",
        "addr:postcode": "14193",
        "addr:street": "Caspar-Theyß-Straße",
        "addr:suburb": "Schmargendorf",
        "amenity": "hospital",
        "barrier": "fence",
        "contact:email": "info.martin-luther@pgdiakonie.de",
        "contact:fax": "+49 30 8955-2015",
        "contact:phone": "+49 30 89550",
        "contact:website": "http://www.pgdiakonie.de/martin-luther-krankenhaus",
        "emergency": "yes",
        "name": "Martin-Luther-Krankenhaus",
        "note": "Geprüft am 25./26. Dez 2015",
        "wheelchair": "yes",
        "wikidata": "Q1903245",
        "@geometry": "center"
      },
      "geometry": {
        "type": "Point",
        "coordinates": [13.2918016, 52.490483]
      },
      "id": "way/132056990"
    },
    {
      "type": "Feature",
      "properties": {
        "@id": "way/137033906",
        "addr:city": "Berlin",
        "addr:country": "DE",
        "addr:housenumber": "61",
        "addr:postcode": "13347",
        "addr:street": "Reinickendorfer Straße",
        "addr:suburb": "Wedding",
        "amenity": "hospital",
        "name": "Evangelisches Geriatriezentrum Berlin",
        "short_name": "EGZB",
        "website": "http://www.egzb.de/",
        "wheelchair": "limited",
        "@geometry": "center"
      },
      "geometry": {
        "type": "Point",
        "coordinates": [13.3637902, 52.5545152]
      },
      "id": "way/137033906"
    },
    {
      "type": "Feature",
      "properties": {
        "@id": "way/138144499",
        "addr:city": "Berlin",
        "addr:country": "DE",
        "addr:housenumber": "21",
        "addr:postcode": "12351",
        "addr:street": "Juchaczweg",
        "addr:suburb": "Buckow",
        "amenity": "hospital",
        "emergency": "no",
        "fax": "+49-30-60001223",
        "name": "Ida-Wolff-Krankenhaus",
        "phone": "+49-30-600010",
        "website": "http://www.awo-pflegenetz.de/krankenhaus-fuer-geriatrie.0.html",
        "@geometry": "center"
      },
      "geometry": {
        "type": "Point",
        "coordinates": [13.4582517, 52.4346925]
      },
      "id": "way/138144499"
    },
    {
      "type": "Feature",
      "properties": {
        "@id": "way/138150297",
        "addr:city": "Berlin",
        "addr:country": "DE",
        "addr:housenumber": "48",
        "addr:postcode": "12351",
        "addr:street": "Rudower Straße",
        "addr:suburb": "Buckow",
        "amenity": "hospital",
        "emergency": "yes",
        "name": "Vivantes Klinikum - Neukölln",
        "website": "https://www.vivantes.de/knk/",
        "wikidata": "Q2528989",
        "@geometry": "center"
      },
      "geometry": {
        "type": "Point",
        "coordinates": [13.4589236, 52.4375513]
      },
      "id": "way/138150297"
    },
    {
      "type": "Feature",
      "properties": {
        "@id": "way/138215763",
        "addr:city": "Berlin",
        "addr:country": "DE",
        "addr:housenumber": "25-39",
        "addr:postcode": "14055",
        "addr:street": "Dickensweg",
        "addr:suburb": "Westend",
        "amenity": "hospital",
        "contact:email": "info@paulinenkrankenhaus.de",
        "contact:fax": "+49 (30) 30008-220",
        "contact:phone": "+49 (30) 30008-0",
        "contact:website": "http://www.paulinenkrankenhaus.de/",
        "name": "Paulinen Krankenhaus",
        "operator": "Paulinenhaus Krankenanstalt e.V.",
        "phone": "+49 30 300080",
        "website": "https://www.paulinenkrankenhaus.de/",
        "wheelchair": "limited",
        "wikidata": "Q29793946",
        "@geometry": "center"
      },
      "geometry": {
        "type": "Point",
        "coordinates": [13.2335372, 52.5077715]
      },
      "id": "way/138215763"
    },
    {
      "type": "Feature",
      "properties": {
        "@id": "way/147512008",
        "amenity": "hospital",
        "building": "public",
        "name": "Krankenhaus Luckenwalde",
        "source": "local_knowledge",
        "@geometry": "center"
      },
      "geometry": {
        "type": "Point",
        "coordinates": [13.1794839, 52.0997285]
      },
      "id": "way/147512008"
    },
    {
      "type": "Feature",
      "properties": {
        "@id": "way/150567515",
        "addr:city": "Werder (Havel)",
        "addr:country": "DE",
        "addr:housenumber": "17",
        "addr:postcode": "14542",
        "addr:street": "Bernhard-Kellermann-Straße",
        "amenity": "hospital",
        "healthcare": "centre",
        "name": "Ärztehaus",
        "toilets:wheelchair": "yes",
        "wheelchair": "yes",
        "@geometry": "center"
      },
      "geometry": {
        "type": "Point",
        "coordinates": [12.9352469, 52.3781345]
      },
      "id": "way/150567515"
    },
    {
      "type": "Feature",
      "properties": {
        "@id": "way/156950243",
        "addr:city": "Kremmen",
        "addr:country": "DE",
        "addr:housenumber": "44",
        "addr:postcode": "16766",
        "addr:street": "Waldhausstraße",
        "addr:suburb": "Sommerfeld",
        "amenity": "hospital",
        "email": "info@sana-hu.de",
        "emergency": "no",
        "fax": "+493305551111",
        "layer": "-1",
        "name": "Hellmuth-Ulrici-Klinik",
        "old_name": "Waldhaus Charlottenburg",
        "operator": "Sana Kliniken",
        "phone": "+493305550",
        "website": "http://sana-hu.de/",
        "wheelchair": "yes",
        "wikidata": "Q1602970",
        "wikipedia": "de:Hellmuth-Ulrici-Klinik",
        "@geometry": "center"
      },
      "geometry": {
        "type": "Point",
        "coordinates": [13.0355179, 52.8116251]
      },
      "id": "way/156950243"
    },
    {
      "type": "Feature",
      "properties": {
        "@id": "way/158250748",
        "addr:city": "Berlin",
        "addr:country": "DE",
        "addr:housenumber": "15",
        "addr:postcode": "12683",
        "addr:street": "Brebacher Weg",
        "addr:suburb": "Biesdorf",
        "alt_name": "Haus 11",
        "amenity": "hospital",
        "contact:email": "post@augenklinik-berlin.de",
        "contact:fax": "+49 30 56840-100",
        "contact:phone": "+49 30 568400",
        "contact:website": "http://www.augenklinik-berlin.de",
        "health_facility:type": "hospital",
        "health_specialty:ophthalmology": "yes",
        "health_specialty:optometry": "yes",
        "medical_system:western": "yes",
        "name": "Augenklinik Berlin Marzahn",
        "note": "Geprüft am 25/26. Dez. 2015",
        "opening_hours:emergency": "Mo-Su 00:00-24:00",
        "opening_hours:office": "Mo-Fr 08:00-16:00",
        "wheelchair": "limited",
        "@geometry": "center"
      },
      "geometry": {
        "type": "Point",
        "coordinates": [13.5675803, 52.5142797]
      },
      "id": "way/158250748"
    },
    {
      "type": "Feature",
      "properties": {
        "@id": "way/158262343",
        "addr:city": "Berlin",
        "addr:country": "DE",
        "addr:housenumber": "7",
        "addr:postcode": "12683",
        "addr:street": "Warener Straße",
        "addr:suburb": "Biesdorf",
        "amenity": "hospital",
        "capacity:beds": "550",
        "contact:email": "service@ukb.de",
        "contact:phone": "+49 30 56810",
        "contact:website": "http://www.ukb.de/",
        "emergency": "yes",
        "health_facility:type": "hospital",
        "medical_system:western": "yes",
        "name": "Unfallkrankenhaus Berlin",
        "opening_hours": "24/7",
        "operator": "Verein für Berufsgenossenschaftliche Heilbehandlung Berlin e.V.",
        "staff_count:nurse": "399",
        "staff_count:physician": "223",
        "toilets:wheelchair": "yes",
        "wheelchair": "yes",
        "wikidata": "Q2493169",
        "wikipedia": "de:Unfallkrankenhaus Berlin",
        "@geometry": "center"
      },
      "geometry": {
        "type": "Point",
        "coordinates": [13.5685534, 52.5191033]
      },
      "id": "way/158262343"
    },
    {
      "type": "Feature",
      "properties": {
        "@id": "way/160806223",
        "amenity": "hospital",
        "name": "Vivantes Klinikum Kaulsdorf",
        "website": "https://www.vivantes.de/khd",
        "wheelchair": "yes",
        "@geometry": "center"
      },
      "geometry": {
        "type": "Point",
        "coordinates": [13.5938599, 52.5067062]
      },
      "id": "way/160806223"
    },
    {
      "type": "Feature",
      "properties": {
        "@id": "way/168832195",
        "addr:city": "Berlin",
        "addr:country": "DE",
        "addr:housenumber": "74-80",
        "addr:postcode": "13467",
        "addr:street": "Frohnauer Straße",
        "addr:suburb": "Hermsdorf",
        "amenity": "hospital",
        "name": "Humboldt-Klinikum",
        "operator": "Vivantes",
        "@geometry": "center"
      },
      "geometry": {
        "type": "Point",
        "coordinates": [13.2934718, 52.6229496]
      },
      "id": "way/168832195"
    },
    {
      "type": "Feature",
      "properties": {
        "@id": "way/168967363",
        "addr:city": "Berlin",
        "addr:country": "DE",
        "addr:housenumber": "15",
        "addr:postcode": "12101",
        "addr:street": "Wüsthoffstraße",
        "addr:suburb": "Tempelhof",
        "amenity": "hospital",
        "name": "St. Joseph Krankenhaus",
        "name:en": "St. Joseph Hospital",
        "name:nl": "St. Joseph Ziekenhuis",
        "toilets:wheelchair": "yes",
        "website": "https://www.sjk.de/",
        "wheelchair": "yes",
        "wikidata": "Q50358759",
        "@geometry": "center"
      },
      "geometry": {
        "type": "Point",
        "coordinates": [13.3729563, 52.478104]
      },
      "id": "way/168967363"
    },
    {
      "type": "Feature",
      "properties": {
        "@id": "way/188899872",
        "addr:city": "Berlin",
        "addr:country": "DE",
        "addr:housenumber": "50",
        "addr:postcode": "13125",
        "addr:street": "Schwanebecker Chaussee",
        "amenity": "hospital",
        "emergency": "yes",
        "name": "HELIOS Klinikum Berlin Buch",
        "phone": "+49 30 94010",
        "toilets:wheelchair": "yes",
        "website": "http://www.helios-kliniken.de/klinik/berlin-buch.html",
        "wheelchair": "yes",
        "@geometry": "center"
      },
      "geometry": {
        "type": "Point",
        "coordinates": [13.5082988, 52.6311762]
      },
      "id": "way/188899872"
    },
    {
      "type": "Feature",
      "properties": {
        "@id": "way/220736683",
        "addr:city": "Wildau",
        "addr:country": "DE",
        "addr:housenumber": "98",
        "addr:postcode": "15745",
        "addr:street": "Freiheitstraße",
        "amenity": "hospital",
        "building": "yes",
        "name": "Gesundheitszentrum Wildau",
        "phone": "+49 3375 525 63 10",
        "toilets:wheelchair": "no",
        "website": "https://gesundheitszentrum-wildau.de/",
        "wheelchair": "yes",
        "@geometry": "center"
      },
      "geometry": {
        "type": "Point",
        "coordinates": [13.6302151, 52.3255344]
      },
      "id": "way/220736683"
    },
    {
      "type": "Feature",
      "properties": {
        "@id": "way/229099728",
        "amenity": "hospital",
        "emergency": "no",
        "name": "Friedrich von Bodelschwingh-Klinik",
        "note": "Klinik für Psychiatrie und Psychotherapie",
        "@geometry": "center"
      },
      "geometry": {
        "type": "Point",
        "coordinates": [13.3297666, 52.4896219]
      },
      "id": "way/229099728"
    },
    {
      "type": "Feature",
      "properties": {
        "@id": "way/237201588",
        "addr:postcode": "16321",
        "addr:street": "Ladeburger Chaussee",
        "alt_name": "Evangelisch-Freikirchliches Krankenhaus Bernau",
        "amenity": "hospital",
        "name": "Immanuel Klinikum Bernau Herzzentrum Brandenburg",
        "opening_hours": "24/7",
        "wheelchair": "yes",
        "@geometry": "center"
      },
      "geometry": {
        "type": "Point",
        "coordinates": [13.5826611, 52.6831864]
      },
      "id": "way/237201588"
    },
    {
      "type": "Feature",
      "properties": {
        "@id": "way/265616877",
        "addr:city": "Beelitz",
        "addr:country": "DE",
        "addr:housenumber": "8",
        "addr:postcode": "14547",
        "addr:street": "Paracelsusring",
        "addr:suburb": "Beelitz-Heilstätten",
        "amenity": "hospital",
        "building": "yes",
        "healthcare": "hospital",
        "name": "Fachkrankenhaus für neurologische Frührehabilitation Beelitz-Heilstätten",
        "@geometry": "center"
      },
      "geometry": {
        "type": "Point",
        "coordinates": [12.9265207, 52.2662587]
      },
      "id": "way/265616877"
    },
    {
      "type": "Feature",
      "properties": {
        "@id": "way/266782475",
        "addr:city": "Berlin",
        "addr:country": "DE",
        "addr:housenumber": "1",
        "addr:postcode": "14055",
        "addr:street": "Pillkaller Allee",
        "addr:suburb": "Westend",
        "amenity": "hospital",
        "contact:email": "verwaltung@malteser-krankenhaus-berlin.de",
        "contact:fax": "+49 (30) 30001-437",
        "contact:phone": "+49 (30) 30001-0",
        "contact:website": "http://www.malteser-krankenhaus-berlin.de/",
        "name": "Malteser-Krankenhaus",
        "operator": "Malteser-Werk-Berlin e. V.",
        "wheelchair": "yes",
        "@geometry": "center"
      },
      "geometry": {
        "type": "Point",
        "coordinates": [13.2519119, 52.508784]
      },
      "id": "way/266782475"
    },
    {
      "type": "Feature",
      "properties": {
        "@id": "way/295247923",
        "amenity": "hospital",
        "@geometry": "center"
      },
      "geometry": {
        "type": "Point",
        "coordinates": [13.7897382, 52.8276528]
      },
      "id": "way/295247923"
    },
    {
      "type": "Feature",
      "properties": {
        "@id": "way/298410358",
        "addr:housenumber": "100",
        "addr:postcode": "16225",
        "addr:street": "Rudolf-Breitscheid-Straße",
        "amenity": "hospital",
        "contact:fax": "+49333423121",
        "contact:phone": "+493334690",
        "contact:website": "http://www.glg-mbh.de/wfk.17.0.html",
        "name": "Werner Forßmann Krankenhaus",
        "wheelchair": "yes",
        "wikidata": "Q2560688",
        "@geometry": "center"
      },
      "geometry": {
        "type": "Point",
        "coordinates": [13.7910493, 52.8287748]
      },
      "id": "way/298410358"
    },
    {
      "type": "Feature",
      "properties": {
        "@id": "way/301029863",
        "addr:city": "Potsdam",
        "addr:country": "DE",
        "addr:housenumber": "7",
        "addr:postcode": "14471",
        "addr:street": "Allee nach Sanssouci",
        "amenity": "hospital",
        "contact:email": "potsdam@alexianer.de",
        "contact:fax": "+49 331 968 22009",
        "contact:phone": "+49 331 968 20",
        "contact:website": "https://www.alexianer-potsdam.de/",
        "emergency": "yes",
        "name": "St.-Josefs-Krankenhaus",
        "operator": "Alexianer St. Josef Potsdam GmbH",
        "toilets:wheelchair": "yes",
        "wheelchair": "yes",
        "@geometry": "center"
      },
      "geometry": {
        "type": "Point",
        "coordinates": [13.0443181, 52.3995372]
      },
      "id": "way/301029863"
    },
    {
      "type": "Feature",
      "properties": {
        "@id": "way/305989452",
        "addr:city": "Berlin",
        "addr:country": "DE",
        "addr:housenumber": "1",
        "addr:postcode": "10967",
        "addr:street": "Dieffenbachstraße",
        "addr:suburb": "Kreuzberg",
        "amenity": "hospital",
        "contact:phone": "+49 30 130210",
        "contact:website": "http://www.vivantes.de/kau",
        "emergency": "yes",
        "name": "Vivantes Klinikum am Urban",
        "reg_name": "Urban-Krankenhaus",
        "start_date": "1887",
        "wheelchair": "yes",
        "wikidata": "Q1297273",
        "wikipedia": "de:Klinikum Am Urban",
        "@geometry": "center"
      },
      "geometry": {
        "type": "Point",
        "coordinates": [13.4085942, 52.4939881]
      },
      "id": "way/305989452"
    },
    {
      "type": "Feature",
      "properties": {
        "@id": "way/325804186",
        "addr:city": "Birkenwerder",
        "addr:country": "DE",
        "addr:housenumber": "12-22",
        "addr:postcode": "16547",
        "addr:street": "Hubertusstraße",
        "amenity": "hospital",
        "email": "info.birkenwerder@asklepios.com",
        "fax": "+49 3303 522222",
        "name": "Asklepios Klinik Birkenwerder",
        "operator": "Asklepios Klinik Wiesbaden GmbH",
        "phone": "+49 3303 5220",
        "source:outline": "estimate",
        "website": "https://www.asklepios.com/birkenwerder",
        "wheelchair": "yes",
        "@geometry": "center"
      },
      "geometry": {
        "type": "Point",
        "coordinates": [13.2984671, 52.6919579]
      },
      "id": "way/325804186"
    },
    {
      "type": "Feature",
      "properties": {
        "@id": "way/326445437",
        "addr:city": "Berlin",
        "addr:country": "DE",
        "addr:housenumber": "70",
        "addr:postcode": "13403",
        "addr:street": "Olbendorfer Weg",
        "addr:suburb": "Reinickendorf",
        "amenity": "hospital",
        "name": "Krankenhaus des Maßregelvollzugs Berlin (KMV)",
        "operator": "Land Berlin",
        "@geometry": "center"
      },
      "geometry": {
        "type": "Point",
        "coordinates": [13.3283008, 52.5830005]
      },
      "id": "way/326445437"
    },
    {
      "type": "Feature",
      "properties": {
        "@id": "way/326448280",
        "addr:city": "Berlin",
        "addr:country": "DE",
        "addr:housenumber": "285",
        "addr:postcode": "13437",
        "addr:street": "Oranienburger Straße",
        "addr:suburb": "Wittenau",
        "amenity": "hospital",
        "name": "Vivantes Humboldt-Klinikum - Standort Oranienburger Straße",
        "operator": "Vivantes",
        "phone": "+4930 130120",
        "toilets:wheelchair": "yes",
        "wheelchair": "limited",
        "@geometry": "center"
      },
      "geometry": {
        "type": "Point",
        "coordinates": [13.3274384, 52.5812119]
      },
      "id": "way/326448280"
    },
    {
      "type": "Feature",
      "properties": {
        "@id": "way/326816935",
        "amenity": "hospital",
        "building": "yes",
        "name": "Oberhavel Kliniken",
        "@geometry": "center"
      },
      "geometry": {
        "type": "Point",
        "coordinates": [13.1442834, 52.9988714]
      },
      "id": "way/326816935"
    },
    {
      "type": "Feature",
      "properties": {
        "@id": "way/364650905",
        "addr:city": "Hoppegarten",
        "addr:housenumber": "107",
        "addr:postcode": "15366",
        "addr:street": "Rennbahnallee",
        "amenity": "hospital",
        "description": "Rehabilitationsfachklinik für Orthopädie, Rheumatologie, Unfallverletzungen und Schmerztherapie, Medizinisch-berufliche Rehabilitation, EFL-Kompetenzzentrum, Verhaltensmedizinische Orthopädie",
        "emergency": "no",
        "name": "MEDIAN-Klinik Hoppegarten",
        "operator": "MEDIAN Kliniken GmbH",
        "phone": "+49 3342 353 0",
        "start_date": "1994-03",
        "website": "https://www.median-kliniken.de/de/standorte/median-klinik-hoppegarten/klinikprofil/",
        "@geometry": "center"
      },
      "geometry": {
        "type": "Point",
        "coordinates": [13.6605698, 52.5048172]
      },
      "id": "way/364650905"
    },
    {
      "type": "Feature",
      "properties": {
        "@id": "way/378933899",
        "amenity": "hospital",
        "name": "Park Klinik Weißensee",
        "wheelchair": "yes",
        "wikidata": "Q1689390",
        "wikipedia": "de:Park-Klinik Weißensee",
        "@geometry": "center"
      },
      "geometry": {
        "type": "Point",
        "coordinates": [13.4507369, 52.5554951]
      },
      "id": "way/378933899"
    },
    {
      "type": "Feature",
      "properties": {
        "@id": "way/380400580",
        "amenity": "hospital",
        "name": "Evangelisches Krankenhaus Hubertus",
        "website": "https://www.pgdiakonie.de/evangelisches-krankenhaus-hubertus/",
        "wheelchair": "yes",
        "@geometry": "center"
      },
      "geometry": {
        "type": "Point",
        "coordinates": [13.219448, 52.4308731]
      },
      "id": "way/380400580"
    },
    {
      "type": "Feature",
      "properties": {
        "@id": "way/391245035",
        "amenity": "hospital",
        "name": "Lazarus-Kranken- und Diakonissenhaus",
        "@geometry": "center"
      },
      "geometry": {
        "type": "Point",
        "coordinates": [13.3878055, 52.5350773]
      },
      "id": "way/391245035"
    },
    {
      "type": "Feature",
      "properties": {
        "@id": "way/393510169",
        "addr:city": "Berlin",
        "addr:country": "DE",
        "addr:housenumber": "6",
        "addr:postcode": "13585",
        "addr:street": "Neue Bergstraße",
        "addr:suburb": "Spandau",
        "amenity": "hospital",
        "contact:phone": "+49 30 130130",
        "contact:phone:emergency": "+49 30 130132070",
        "contact:website": "http://www.vivantes.de/ksp",
        "name": "Vivantes Klinikum Spandau",
        "wheelchair": "yes",
        "@geometry": "center"
      },
      "geometry": {
        "type": "Point",
        "coordinates": [13.2069692, 52.5496169]
      },
      "id": "way/393510169"
    },
    {
      "type": "Feature",
      "properties": {
        "@id": "way/402746500",
        "addr:city": "Woltersdorf",
        "addr:housenumber": "50",
        "addr:postcode": "15569",
        "addr:street": "Schleusenstraße",
        "alt_name": "Gottesfriede",
        "amenity": "hospital",
        "name": "Evangelisches Krankenhaus Woltersdorf",
        "operator": "Deutscher Jugendverband Entschieden fuer Christus e.V.",
        "website": "http://www.krankenhaus-woltersdorf.de/",
        "wheelchair": "yes",
        "@geometry": "center"
      },
      "geometry": {
        "type": "Point",
        "coordinates": [13.7622157, 52.4476303]
      },
      "id": "way/402746500"
    },
    {
      "type": "Feature",
      "properties": {
        "@id": "node/418367158",
        "amenity": "hospital"
      },
      "geometry": {
        "type": "Point",
        "coordinates": [13.5198839, 52.389643]
      },
      "id": "node/418367158"
    },
    {
      "type": "Feature",
      "properties": {
        "@id": "way/431865304",
        "addr:city": "Eberswalde",
        "addr:housenumber": "8",
        "addr:postcode": "16225",
        "addr:street": "Oderberger Straße",
        "amenity": "hospital",
        "fax": "+49 333453261",
        "healthcare:speciality": "psychiatry",
        "name": "Martin-Gropius-Krankenhaus",
        "operator": "Martin Gropius Krankenhaus GmbH",
        "phone": "+49 3334530",
        "website": "http://www.glg-mbh.de/Martin-Gropius-Krankenhaus.15.0.html",
        "wheelchair": "yes",
        "wikidata": "Q1903903",
        "wikipedia:en": "Martin Gropius Krankenhaus",
        "@geometry": "center"
      },
      "geometry": {
        "type": "Point",
        "coordinates": [13.8291965, 52.8452228]
      },
      "id": "way/431865304"
    },
    {
      "type": "Feature",
      "properties": {
        "@id": "way/469731984",
        "addr:city": "Luckenwalde",
        "addr:housenumber": "1A",
        "addr:postcode": "14943",
        "addr:street": "Saarstraße",
        "amenity": "hospital",
        "emergency": "yes",
        "name": "DRK-Krankenhaus Luckenwalde",
        "operator": "Deutsches Rotes Kreuz",
        "@geometry": "center"
      },
      "geometry": {
        "type": "Point",
        "coordinates": [13.1788233, 52.0996975]
      },
      "id": "way/469731984"
    },
    {
      "type": "Feature",
      "properties": {
        "@id": "way/500681778",
        "amenity": "hospital",
        "name": "Oberhavelkliniken",
        "@geometry": "center"
      },
      "geometry": {
        "type": "Point",
        "coordinates": [13.1909249, 52.6557561]
      },
      "id": "way/500681778"
    },
    {
      "type": "Feature",
      "properties": {
        "@id": "way/510319574",
        "addr:city": "Berlin",
        "addr:country": "DE",
        "addr:housenumber": "63",
        "addr:postcode": "14109",
        "addr:street": "Königstraße",
        "addr:suburb": "Wannsee",
        "alt_name": "Immanuel-Krankenhaus Rheumaklinik Berlin-Wannsee und Zentrum für Naturheilkunde",
        "amenity": "hospital",
        "contact:email": "berlin@immanuel.de",
        "contact:fax": "+49 30 80505288",
        "contact:phone": "+49 30 805050",
        "contact:website": "http://www.immanuel.de/einrichtungen/berlin-wannsee",
        "member_of": "Immanuel Diakonie",
        "name": "Immanuel Krankenhaus Berlin",
        "wheelchair": "yes",
        "wikidata": "Q30267075",
        "@geometry": "center"
      },
      "geometry": {
        "type": "Point",
        "coordinates": [13.1640021, 52.4194854]
      },
      "id": "way/510319574"
    },
    {
      "type": "Feature",
      "properties": {
        "@id": "way/543927798",
        "amenity": "hospital",
        "@geometry": "center"
      },
      "geometry": {
        "type": "Point",
        "coordinates": [13.5694649, 52.51781]
      },
      "id": "way/543927798"
    },
    {
      "type": "Feature",
      "properties": {
        "@id": "way/567540939",
        "amenity": "hospital",
        "emergency": "yes",
        "name": "Alexianer St. Joseph Krankenhaus Berlin-Weißensee",
        "operator": "Alexianer St. Joseph Berlin-Weißensee GmbH",
        "wheelchair": "yes",
        "@geometry": "center"
      },
      "geometry": {
        "type": "Point",
        "coordinates": [13.4691308, 52.5505504]
      },
      "id": "way/567540939"
    },
    {
      "type": "Feature",
      "properties": {
        "@id": "way/574612976",
        "addr:city": "Königs Wusterhausen",
        "addr:country": "DE",
        "addr:housenumber": "29",
        "addr:postcode": "15711",
        "addr:street": "Köpenicker Straße",
        "amenity": "hospital",
        "contact:phone": "+49 3375 2880",
        "contact:website": "https://www.klinikum-ds.de/",
        "name": "Achenbach Krankenhaus",
        "wheelchair": "yes",
        "@geometry": "center"
      },
      "geometry": {
        "type": "Point",
        "coordinates": [13.6277376, 52.3033955]
      },
      "id": "way/574612976"
    },
    {
      "type": "Feature",
      "properties": {
        "@id": "way/583306346",
        "amenity": "hospital",
        "emergency": "yes",
        "name": "Charité Universitätsmedizin Berlin",
        "name:ru": "Шарите",
        "website": "https://www.charite.de/",
        "wheelchair": "yes",
        "wikidata": "Q162684",
        "wikipedia": "de:Charité",
        "@geometry": "center"
      },
      "geometry": {
        "type": "Point",
        "coordinates": [13.3778632, 52.5257624]
      },
      "id": "way/583306346"
    },
    {
      "type": "Feature",
      "properties": {
        "@id": "way/617784656",
        "addr:city": "Potsdam",
        "addr:country": "DE",
        "addr:housenumber": "42",
        "addr:postcode": "14476",
        "addr:street": "Am Stinthorn",
        "addr:suburb": "Neu Fahrland",
        "amenity": "hospital",
        "building": "hospital",
        "building:levels": "4",
        "contact:email": "potsdam@ebel-kliniken.com",
        "contact:fax": "+49 33208 56-656",
        "contact:phone": "+49 33208 56-0",
        "contact:website": "https://www.ebel-kliniken.com/deutsch/fachkliniken/heinrich-heine-klinik/ihre-heinrich-heine-klinik/",
        "healthcare": "rehabilitation",
        "name": "Heinrich-Heine-Klinik",
        "operator": "Dr. Ebel Fachkliniken GmbH & Co.",
        "operator:type": "business",
        "roof:levels": "2",
        "wheelchair": "yes",
        "@geometry": "center"
      },
      "geometry": {
        "type": "Point",
        "coordinates": [13.0544618, 52.446197]
      },
      "id": "way/617784656"
    },
    {
      "type": "Feature",
      "properties": {
        "@id": "way/640582918",
        "addr:city": "Berlin",
        "addr:country": "DE",
        "addr:housenumber": "3-5",
        "addr:postcode": "12207",
        "addr:street": "Promenadenstraße",
        "addr:suburb": "Lichterfelde",
        "amenity": "hospital",
        "emergency": "yes",
        "name": "Krankenhaus Bethel",
        "phone": "+49 30 77910",
        "toilets:wheelchair": "yes",
        "website": "https://www.bethelnet.de/kliniken/krankenhaus-bethel-berlin.html",
        "wheelchair": "yes",
        "@geometry": "center"
      },
      "geometry": {
        "type": "Point",
        "coordinates": [13.3266634, 52.4324342]
      },
      "id": "way/640582918"
    },
    {
      "type": "Feature",
      "properties": {
        "@id": "way/660951731",
        "addr:city": "Berlin",
        "addr:country": "DE",
        "addr:housenumber": "123-143",
        "addr:postcode": "12249",
        "addr:street": "Gallwitzallee",
        "addr:suburb": "Lankwitz",
        "amenity": "hospital",
        "emergency": "yes",
        "name": "Sankt-Marien-Krankenhaus",
        "phone": "+49 30 76783-0",
        "website": "http://www.marienkrankenhaus-berlin.de/",
        "@geometry": "center"
      },
      "geometry": {
        "type": "Point",
        "coordinates": [13.3491217, 52.4246461]
      },
      "id": "way/660951731"
    },
    {
      "type": "Feature",
      "properties": {
        "@id": "way/670481735",
        "addr:city": "Berlin",
        "addr:country": "DE",
        "addr:housenumber": "26",
        "addr:postcode": "12683",
        "addr:street": "Blumberger Damm",
        "addr:suburb": "Biesdorf",
        "amenity": "hospital",
        "name": "Arona Klinik für Altersmedizin",
        "website": "https://arona-kliniken.de/",
        "@geometry": "center"
      },
      "geometry": {
        "type": "Point",
        "coordinates": [13.5639879, 52.5155088]
      },
      "id": "way/670481735"
    },
    {
      "type": "Feature",
      "properties": {
        "@id": "node/775745348",
        "addr:city": "Berlin",
        "addr:country": "DE",
        "addr:housenumber": "24-26",
        "addr:postcode": "10785",
        "addr:street": "Lützowstraße",
        "addr:suburb": "Tiergarten",
        "amenity": "hospital",
        "name": "Evangelische Elisabeth Klinik",
        "phone": "+49 30 25061",
        "toilets:wheelchair": "yes",
        "website": "https://www.pgdiakonie.de/evangelische-elisabeth-klinik",
        "wheelchair": "yes"
      },
      "geometry": {
        "type": "Point",
        "coordinates": [13.3640559, 52.5037269]
      },
      "id": "node/775745348"
    },
    {
      "type": "Feature",
      "properties": {
        "@id": "node/1257340412",
        "amenity": "hospital",
        "name": "Klinik für Kinder- und Jugendmedizin",
        "operator": "St. Joseph Krankenhaus",
        "website": "https://www.sjk.de/kliniken/klinik-fuer-kinder-jugendmedizin"
      },
      "geometry": {
        "type": "Point",
        "coordinates": [13.3717015, 52.47781]
      },
      "id": "node/1257340412"
    },
    {
      "type": "Feature",
      "properties": {
        "@id": "node/1574484133",
        "amenity": "hospital",
        "emergency": "no",
        "name": "Landheim der BSM"
      },
      "geometry": {
        "type": "Point",
        "coordinates": [13.7327824, 52.2567767]
      },
      "id": "node/1574484133"
    },
    {
      "type": "Feature",
      "properties": {
        "@id": "node/1693693605",
        "addr:street": "Straße nach Fichtenwalde",
        "amenity": "hospital",
        "disused": "yes",
        "historic": "building",
        "name": "Beelitz-Heilstätten",
        "name:ru": "ru:Белитц-Хайльштеттен",
        "population": "435",
        "postal_code": "14547",
        "website": "https://www.beelitz.de/verzeichnis/objekt.php?mandat=4814",
        "wikidata": "Q814053"
      },
      "geometry": {
        "type": "Point",
        "coordinates": [12.9245571, 52.2619057]
      },
      "id": "node/1693693605"
    }
  ]
}
